OBJECT_NAME,OBJECT_ID,EPOCH,MEAN_MOTION,ECCENTRICITY,INCLINATION,RA_OF_ASC_NODE,ARG_OF_PERICENTER,MEAN_ANOMALY,EPHEMERIS_TYPE,CLASSIFICATION_TYPE,NORAD_CAT_ID,ELEMENT_SET_NO,REV_AT_EPOCH,BSTAR,MEAN_MOTION_DOT,MEAN_MOTION_DDOT
ONEWEB-0309,2021-075W,2026-06-16T13:22:45.843456,13.17648839,.00019464,87.9133,5.9881,102.7408,257.3942,0,U,49095,999,23349,.11363677E-3,.57E-6,0
ONEWEB-0310,2021-075X,2026-06-16T13:11:13.983360,13.12444816,.00018216,87.8939,350.8073,91.5049,268.6289,0,U,49096,999,23510,-.57102979E-3,-.193E-5,0
ONEWEB-0311,2021-075Y,2026-06-16T13:32:29.635296,13.17650124,.00023734,87.9135,5.9864,81.7536,278.3864,0,U,49097,999,23354,.8481181E-4,.46E-6,0
ONEWEB-0312,2021-075Z,2026-06-16T13:54:22.513536,13.17653244,.00021804,87.9131,5.9943,91.5835,268.5547,0,U,49098,999,23352,.12860387E-3,.63E-6,0
ONEWEB-0313,2021-075AA,2026-06-16T14:01:26.716800,13.17648587,.00019881,87.9128,5.9991,86.6049,273.5310,0,U,49099,999,23351,.42632079E-4,.29E-6,0
ONEWEB-0314,2021-075AB,2026-06-16T13:13:03.592128,13.17649297,.00022164,87.9142,5.9782,91.1746,268.9640,0,U,49100,999,23348,.1294166E-3,.63E-6,0
ONEWEB-0315,2021-075AC,2026-06-16T12:32:12.481152,13.12442873,.00020651,87.8948,350.7764,81.8273,278.3090,0,U,49101,999,23508,-.37461989E-3,-.122E-5,0
ONEWEB-0316,2021-075AD,2026-06-16T11:25:20.112672,13.18687175,.00019087,87.9164,335.5974,91.8325,268.3026,0,U,49102,999,23711,.16308535E-3,.77E-6,0
ONEWEB-0317,2021-075AE,2026-06-16T12:37:05.267424,13.12442889,.00015219,87.8948,350.7994,113.9757,246.1531,0,U,49103,999,23510,-.64555563E-3,-.22E-5,0
ONEWEB-0318,2021-075AF,2026-06-16T11:20:29.068224,13.18686162,.00020006,87.9170,335.5996,86.7478,273.3883,0,U,49104,999,23707,.94214219E-4,.5E-6,0
ONEWEB-0319,2021-075AG,2026-06-16T13:34:55.023168,13.17649346,.00022139,87.9132,5.9914,76.7345,283.4033,0,U,49105,999,23352,.65712684E-4,.38E-6,0
ONEWEB-0323,2021-075AH,2026-06-16T14:00:02.496672,13.12443704,.0002302,87.8948,350.7695,82.4239,277.7151,0,U,49106,999,23447,.12507163E-2,.463E-5,0
ONEWEB-0329,2021-075AJ,2026-06-16T13:47:04.088832,13.17649364,.00020293,87.9132,5.9906,88.9503,271.1861,0,U,49107,999,23350,.10341104E-3,.53E-6,0
ONEWEB-0330,2021-075AK,2026-06-16T14:21:18.262656,13.17649029,.00020324,87.9135,6.0063,93.3229,266.8135,0,U,49108,999,23354,.12918271E-4,.18E-6,0
ONEWEB-0292,2021-083A,2026-06-16T11:31:09.383808,13.13472066,.00019489,87.8949,320.3791,91.6810,268.4542,0,U,49186,999,23083,.92789494E-3,.352E-5,0
ONEWEB-0303,2021-083B,2026-06-16T11:15:37.494144,13.18687069,.00019717,87.9164,335.5991,89.3618,270.7740,0,U,49187,999,22988,.65056572E-4,.39E-6,0
ONEWEB-0306,2021-083C,2026-06-16T11:01:02.999136,13.18686982,.00017397,87.9170,335.5889,99.0870,261.0459,0,U,49188,999,22992,-.6999518E-5,.1E-6,0
ONEWEB-0307,2021-083D,2026-06-16T11:22:36.867648,13.13470908,.00019557,87.8954,320.3774,94.5928,265.5425,0,U,49189,999,23083,.33651609E-3,.136E-5,0
ONEWEB-0320,2021-083E,2026-06-16T11:30:10.893600,13.18686149,.00018161,87.9159,335.6030,94.2588,265.8752,0,U,49190,999,22988,.12343404E-3,.62E-6,0
ONEWEB-0321,2021-083F,2026-06-16T14:16:47.393472,13.20772137,.00017871,87.9194,274.5527,107.3509,252.7820,0,U,49191,999,23675,-.19892251E-3,-.68E-6,0
ONEWEB-0322,2021-083G,2026-06-16T11:16:29.315136,13.13468801,.00013768,87.8951,320.3785,101.1797,258.9487,0,U,49192,999,23082,-.25366847E-3,-.8E-6,0
ONEWEB-0324,2021-083H,2026-06-16T12:40:35.765472,13.18684999,.00019628,87.9172,335.5807,97.7357,262.3998,0,U,49193,999,22991,-.11003946E-3,-.3E-6,0
ONEWEB-0325,2021-083J,2026-06-16T12:45:27.488160,13.18685742,.00017879,87.9161,335.5883,90.4037,269.7300,0,U,49194,999,22992,-.12921736E-4,.8E-7,0
ONEWEB-0326,2021-083K,2026-06-16T11:18:15.004800,13.18685587,.00019981,87.9170,335.5981,86.0110,274.1251,0,U,49195,999,22990,.12285785E-3,.61E-6,0
ONEWEB-0327,2021-083L,2026-06-16T11:17:50.772192,13.18685418,.00019486,87.9161,335.6024,81.1328,279.0025,0,U,49196,999,22992,-.12973006E-4,.8E-7,0
ONEWEB-0328,2021-083M,2026-06-16T11:01:53.130144,13.13470814,.00019638,87.8960,320.3536,99.3465,260.7886,0,U,49197,999,23080,-.55023635E-3,-.188E-5,0
ONEWEB-0331,2021-083N,2026-06-16T11:08:19.777920,13.18687262,.00021013,87.9170,335.5932,86.2637,273.8735,0,U,49198,999,22991,.46249329E-4,.31E-6,0
ONEWEB-0333,2021-083P,2026-06-16T10:54:34.144704,13.13470627,.00018477,87.8949,320.3810,95.0526,265.0814,0,U,49199,999,23081,-.63729522E-3,-.22E-5,0
ONEWEB-0334,2021-083Q,2026-06-16T12:51:03.130560,13.21266142,.00016543,87.9193,274.5757,123.3723,236.7569,0,U,49200,999,23670,-.22855877E-2,-.923E-5,0
ONEWEB-0335,2021-083R,2026-06-16T10:47:15.523872,13.13471055,.00019954,87.8953,320.3786,93.1106,267.0252,0,U,49201,999,23082,-.77979401E-3,-.272E-5,0
