[
  {
    "name": "ONEWEB-0309",
    "noradId": "49095",
    "line1": "1 49095U 21075W   26167.55747504  .00000057  00000+0  11364-3 0  9990",
    "line2": "2 49095  87.9133   5.9881 0001946 102.7408 257.3942 13.17648839233496"
  },
  {
    "name": "ONEWEB-0310",
    "noradId": "49096",
    "line1": "1 49096U 21075X   26167.54946740 -.00000193  00000+0 -57103-3 0  9997",
    "line2": "2 49096  87.8939 350.8073 0001821  91.5049 268.6289 13.12444816235106"
  },
  {
    "name": "ONEWEB-0311",
    "noradId": "49097",
    "line1": "1 49097U 21075Y   26167.56423189  .00000046  00000+0  84812-4 0  9990",
    "line2": "2 49097  87.9135   5.9864 0002373  81.7536 278.3864 13.17650124233546"
  },
  {
    "name": "ONEWEB-0312",
    "noradId": "49098",
    "line1": "1 49098U 21075Z   26167.57942724  .00000063  00000+0  12860-3 0  9995",
    "line2": "2 49098  87.9131   5.9943 0002180  91.5835 268.5547 13.17653244233521"
  },
  {
    "name": "ONEWEB-0313",
    "noradId": "49099",
    "line1": "1 49099U 21075AA  26167.58433700  .00000029  00000+0  42632-4 0  9999",
    "line2": "2 49099  87.9128   5.9991 0001988  86.6049 273.5310 13.17648587233515"
  },
  {
    "name": "ONEWEB-0314",
    "noradId": "49100",
    "line1": "1 49100U 21075AB  26167.55073602  .00000063  00000+0  12942-3 0  9998",
    "line2": "2 49100  87.9142   5.9782 0002216  91.1746 268.9640 13.17649297233481"
  },
  {
    "name": "ONEWEB-0315",
    "noradId": "49101",
    "line1": "1 49101U 21075AC  26167.52236668 -.00000122  00000+0 -37462-3 0  9991",
    "line2": "2 49101  87.8948 350.7764 0002065  81.8273 278.3090 13.12442873235087"
  },
  {
    "name": "ONEWEB-0316",
    "noradId": "49102",
    "line1": "1 49102U 21075AD  26167.47592723  .00000077  00000+0  16309-3 0  9997",
    "line2": "2 49102  87.9164 335.5974 0001908  91.8325 268.3026 13.18687175237113"
  },
  {
    "name": "ONEWEB-0317",
    "noradId": "49103",
    "line1": "1 49103U 21075AE  26167.52575541 -.00000220  00000+0 -64556-3 0  9992",
    "line2": "2 49103  87.8948 350.7994 0001521 113.9757 246.1531 13.12442889235107"
  },
  {
    "name": "ONEWEB-0318",
    "noradId": "49104",
    "line1": "1 49104U 21075AF  26167.47255866  .00000050  00000+0  94214-4 0  9996",
    "line2": "2 49104  87.9170 335.5996 0002000  86.7478 273.3883 13.18686162237079"
  },
  {
    "name": "ONEWEB-0319",
    "noradId": "49105",
    "line1": "1 49105U 21075AG  26167.56591462  .00000038  00000+0  65713-4 0  9990",
    "line2": "2 49105  87.9132   5.9914 0002213  76.7345 283.4033 13.17649346233521"
  },
  {
    "name": "ONEWEB-0323",
    "noradId": "49106",
    "line1": "1 49106U 21075AH  26167.58336223  .00000463  00000+0  12507-2 0  9998",
    "line2": "2 49106  87.8948 350.7695 0002302  82.4239 277.7151 13.12443704234475"
  },
  {
    "name": "ONEWEB-0329",
    "noradId": "49107",
    "line1": "1 49107U 21075AJ  26167.57435288  .00000053  00000+0  10341-3 0  9999",
    "line2": "2 49107  87.9132   5.9906 0002029  88.9503 271.1861 13.17649364233501"
  },
  {
    "name": "ONEWEB-0330",
    "noradId": "49108",
    "line1": "1 49108U 21075AK  26167.59812804  .00000018  00000+0  12918-4 0  9999",
    "line2": "2 49108  87.9135   6.0063 0002032  93.3229 266.8135 13.17649029233547"
  },
  {
    "name": "ONEWEB-0292",
    "noradId": "49186",
    "line1": "1 49186U 21083A   26167.47996972  .00000352  00000+0  92789-3 0  9994",
    "line2": "2 49186  87.8949 320.3791 0001948  91.6810 268.4542 13.13472066230837"
  },
  {
    "name": "ONEWEB-0303",
    "noradId": "49187",
    "line1": "1 49187U 21083B   26167.46918396  .00000039  00000+0  65057-4 0  9999",
    "line2": "2 49187  87.9164 335.5991 0001971  89.3618 270.7740 13.18687069229889"
  },
  {
    "name": "ONEWEB-0306",
    "noradId": "49188",
    "line1": "1 49188U 21083C   26167.45906249  .00000010  00000+0 -69995-5 0  9999",
    "line2": "2 49188  87.9170 335.5889 0001739  99.0870 261.0459 13.18686982229921"
  },
  {
    "name": "ONEWEB-0307",
    "noradId": "49189",
    "line1": "1 49189U 21083D   26167.47403782  .00000136  00000+0  33652-3 0  9993",
    "line2": "2 49189  87.8954 320.3774 0001955  94.5928 265.5425 13.13470908230838"
  },
  {
    "name": "ONEWEB-0320",
    "noradId": "49190",
    "line1": "1 49190U 21083E   26167.47929275  .00000062  00000+0  12343-3 0  9997",
    "line2": "2 49190  87.9159 335.6030 0001816  94.2588 265.8752 13.18686149229887"
  },
  {
    "name": "ONEWEB-0321",
    "noradId": "49191",
    "line1": "1 49191U 21083F   26167.59499298 -.00000068  00000+0 -19892-3 0  9992",
    "line2": "2 49191  87.9194 274.5527 0001787 107.3509 252.7820 13.20772137236756"
  },
  {
    "name": "ONEWEB-0322",
    "noradId": "49192",
    "line1": "1 49192U 21083G   26167.46978374 -.00000080  00000+0 -25367-3 0  9994",
    "line2": "2 49192  87.8951 320.3785 0001376 101.1797 258.9487 13.13468801230829"
  },
  {
    "name": "ONEWEB-0324",
    "noradId": "49193",
    "line1": "1 49193U 21083H   26167.52819173 -.00000030  00000+0 -11004-3 0  9991",
    "line2": "2 49193  87.9172 335.5807 0001962  97.7357 262.3998 13.18684999229919"
  },
  {
    "name": "ONEWEB-0325",
    "noradId": "49194",
    "line1": "1 49194U 21083J   26167.53156815  .00000008  00000+0 -12922-4 0  9995",
    "line2": "2 49194  87.9161 335.5883 0001787  90.4037 269.7300 13.18685742229928"
  },
  {
    "name": "ONEWEB-0326",
    "noradId": "49195",
    "line1": "1 49195U 21083K   26167.47100700  .00000061  00000+0  12286-3 0  9991",
    "line2": "2 49195  87.9170 335.5981 0001998  86.0110 274.1251 13.18685587229905"
  },
  {
    "name": "ONEWEB-0327",
    "noradId": "49196",
    "line1": "1 49196U 21083L   26167.47072653  .00000008  00000+0 -12973-4 0  9993",
    "line2": "2 49196  87.9161 335.6024 0001948  81.1328 279.0025 13.18685418229925"
  },
  {
    "name": "ONEWEB-0328",
    "noradId": "49197",
    "line1": "1 49197U 21083M   26167.45964271 -.00000188  00000+0 -55024-3 0  9991",
    "line2": "2 49197  87.8960 320.3536 0001963  99.3465 260.7886 13.13470814230809"
  },
  {
    "name": "ONEWEB-0331",
    "noradId": "49198",
    "line1": "1 49198U 21083N   26167.46411780  .00000031  00000+0  46249-4 0  9990",
    "line2": "2 49198  87.9170 335.5932 0002101  86.2637 273.8735 13.18687262229913"
  },
  {
    "name": "ONEWEB-0333",
    "noradId": "49199",
    "line1": "1 49199U 21083P   26167.45456186 -.00000220  00000+0 -63730-3 0  9994",
    "line2": "2 49199  87.8949 320.3810 0001847  95.0526 265.0814 13.13470627230817"
  },
  {
    "name": "ONEWEB-0334",
    "noradId": "49200",
    "line1": "1 49200U 21083Q   26167.53545290 -.00000923  00000+0 -22856-2 0  9994",
    "line2": "2 49200  87.9193 274.5757 0001654 123.3723 236.7569 13.21266142236702"
  },
  {
    "name": "ONEWEB-0335",
    "noradId": "49201",
    "line1": "1 49201U 21083R   26167.44948523 -.00000272  00000+0 -77979-3 0  9995",
    "line2": "2 49201  87.8953 320.3786 0001995  93.1106 267.0252 13.13471055230820"
  }
]